[{"OBJECT_NAME":"STARLINK-32895","OBJECT_ID":"2025-037E","EPOCH":"2026-03-09T22:15:33.015744","MEAN_MOTION":14.98328804,"ECCENTRICITY":0.00026086,"INCLINATION":70.003,"RA_OF_ASC_NODE":354.0166,"ARG_OF_PERICENTER":264.7372,"MEAN_ANOMALY":95.3489,"EPHEMERIS_TYPE":0,"CLASSIFICATION_TYPE":"U","NORAD_CAT_ID":63081,"ELEMENT_SET_NO":999,"REV_AT_EPOCH":5849,"BSTAR":0.0004794443,"MEAN_MOTION_DOT":5.632e-5,"MEAN_MOTION_DDOT":0},{"OBJECT_NAME":"QPS-SAR-14 (YACHIHOKO-I)","OBJECT_ID":"2025-252A","EPOCH":"2026-03-09T23:58:05.760192","MEAN_MOTION":14.98763566,"ECCENTRICITY":0.00075988,"INCLINATION":42.0055,"RA_OF_ASC_NODE":316.7582,"ARG_OF_PERICENTER":330.3293,"MEAN_ANOMALY":29.71,"EPHEMERIS_TYPE":0,"CLASSIFICATION_TYPE":"U","NORAD_CAT_ID":66316,"ELEMENT_SET_NO":999,"REV_AT_EPOCH":1862,"BSTAR":0.00051193076,"MEAN_MOTION_DOT":6.093e-5,"MEAN_MOTION_DDOT":0}]
